SL-16 R/B               
1 22566U 93016B   26051.74670554 -.00000097  00000+0 -25541-4 0  9990
2 22566  71.0042 250.7679 0010706 337.2735  22.7913 14.15299959699773
COSMOS 2242             
1 22626U 93024A   26051.71937830  .00001648  00000+0  14255-3 0  9996
2 22626  82.5171 282.9504 0016629   7.8071 352.3407 14.96474644777858
SL-16 R/B               
1 22803U 93059B   26051.39623287 -.00000020  00000+0  13864-4 0  9993
2 22803  70.9895  47.5944 0019204 240.3858 119.5353 14.17227405677082
ARIANE 40 R/B           
1 22830U 93061H   26051.72971193  .00000165  00000+0  76280-4 0  9995
2 22830  98.4955 120.9490 0010055 339.9197  20.1590 14.32851143691672
SL-16 R/B               
1 23088U 94023B   26051.53679788  .00000301  00000+0  18009-3 0  9990
2 23088  70.9992 106.9126 0004918 301.4174  58.6467 14.15010206643667
SL-16 R/B               
1 23343U 94074B   26051.69129512  .00000394  00000+0  59450-4 0  9990
2 23343  97.7133  83.1956 0005126 278.4898 195.4153 14.79386148684736
SL-16 R/B               
1 23405U 94077B   26051.38376236  .00000085  00000+0  67913-4 0  9995
2 23405  70.9837  28.8952 0003879 229.1772 130.9014 14.15563553613782
SL-16 R/B               
1 23705U 95058B   26051.74322436 -.00000198  00000+0 -77137-4 0  9997
2 23705  71.0200 215.8318 0011392 155.2637 204.9035 14.15495308565450
ORBVIEW 2 (SEASTAR)     
1 24883U 97037A   26051.41049873  .00000215  00000+0  90928-4 0  9990
2 24883  98.8535 215.2671 0003175 106.8920 253.2613 14.35480186505991
